{
  "type": "FeatureCollection",
  "features": [
    {
      "type": "Feature",
      "geometry": {
        "type": "Point",
        "coordinates": [
          84.7,
          42.0
        ]
      },
      "properties": {
        "id": "high_001",
        "feature_type": "high",
        "label": "H",
        "level": "mslp",
        "value": 1023.96,
        "unit": "hPa",
        "confidence": 0.54,
        "evidence": [
          "局地气压极值明显",
          "中心值相对周边差异约 0.8 hPa",
          "MVP 使用局地极值和相对差异识别，后续可加入闭合等压线判定"
        ]
      }
    },
    {
      "type": "Feature",
      "geometry": {
        "type": "Point",
        "coordinates": [
          105.69999999999999,
          32.5
        ]
      },
      "properties": {
        "id": "low_002",
        "feature_type": "low",
        "label": "L",
        "level": "mslp",
        "value": 1002.82,
        "unit": "hPa",
        "confidence": 0.61,
        "evidence": [
          "局地气压极值明显",
          "中心值相对周边差异约 1.3 hPa",
          "MVP 使用局地极值和相对差异识别，后续可加入闭合等压线判定"
        ]
      }
    },
    {
      "type": "Feature",
      "geometry": {
        "type": "Point",
        "coordinates": [
          70.0,
          55.0
        ]
      },
      "properties": {
        "id": "low_003",
        "feature_type": "low",
        "label": "L",
        "level": "mslp",
        "value": 1012.81,
        "unit": "hPa",
        "confidence": 0.54,
        "evidence": [
          "局地气压极值明显",
          "中心值相对周边差异约 0.7 hPa",
          "MVP 使用局地极值和相对差异识别，后续可加入闭合等压线判定"
        ]
      }
    },
    {
      "type": "Feature",
      "geometry": {
        "type": "Polygon",
        "coordinates": [
          [
            [
              70.0,
              19.5
            ],
            [
              140.0,
              19.5
            ],
            [
              140.0,
              28.5
            ],
            [
              70.0,
              28.5
            ],
            [
              70.0,
              19.5
            ]
          ]
        ]
      },
      "properties": {
        "id": "subtropical_high_001",
        "feature_type": "subtropical_high",
        "title": "副热带高压 5880gpm 区域",
        "confidence": 0.65,
        "point_count": 1289,
        "centroid": [
          107.7967416602017,
          23.648952676493405
        ],
        "bbox": [
          70.0,
          19.5,
          140.0,
          28.5
        ],
        "max_value": 5908.0,
        "mean_value": 5892.1523134455,
        "evidence": [
          "500hPa 位势高度达到或超过 5880 gpm",
          "MVP 以 5880gpm 区域近似表示副高范围"
        ],
        "level": "500hPa",
        "contour_gpm": 5880.0
      }
    },
    {
      "type": "Feature",
      "geometry": {
        "type": "LineString",
        "coordinates": [
          [
            103.6,
            21.5
          ],
          [
            104.3,
            22.0
          ],
          [
            104.3,
            22.5
          ],
          [
            104.3,
            23.0
          ],
          [
            104.3,
            23.5
          ],
          [
            104.3,
            24.0
          ],
          [
            104.3,
            24.5
          ],
          [
            105.0,
            25.0
          ],
          [
            105.0,
            25.5
          ],
          [
            105.0,
            26.0
          ],
          [
            105.0,
            26.5
          ],
          [
            105.0,
            27.0
          ],
          [
            105.0,
            27.5
          ],
          [
            105.0,
            28.0
          ],
          [
            105.0,
            28.5
          ],
          [
            105.0,
            29.0
          ],
          [
            105.0,
            29.5
          ],
          [
            105.0,
            30.0
          ],
          [
            105.0,
            30.5
          ],
          [
            105.0,
            31.0
          ],
          [
            105.0,
            31.5
          ],
          [
            105.0,
            32.0
          ],
          [
            105.0,
            32.5
          ],
          [
            105.0,
            33.0
          ],
          [
            105.0,
            33.5
          ],
          [
            105.0,
            34.0
          ],
          [
            105.0,
            34.5
          ],
          [
            105.0,
            35.0
          ],
          [
            105.0,
            35.5
          ],
          [
            105.0,
            36.0
          ],
          [
            105.0,
            36.5
          ],
          [
            105.0,
            37.0
          ],
          [
            105.0,
            37.5
          ],
          [
            105.0,
            38.0
          ],
          [
            105.0,
            38.5
          ],
          [
            105.0,
            39.0
          ],
          [
            105.0,
            39.5
          ],
          [
            105.0,
            40.0
          ],
          [
            105.0,
            40.5
          ],
          [
            105.0,
            41.0
          ],
          [
            104.3,
            41.5
          ],
          [
            104.3,
            42.0
          ],
          [
            104.3,
            42.5
          ],
          [
            104.3,
            43.0
          ],
          [
            104.3,
            43.5
          ],
          [
            104.3,
            44.0
          ],
          [
            103.6,
            44.5
          ]
        ]
      },
      "properties": {
        "id": "trough_001",
        "feature_type": "trough",
        "title": "500hPa 槽线候选",
        "level": "500hPa",
        "confidence": 0.55,
        "evidence": [
          "基于 500hPa 位势高度距平轴线的启发式识别",
          "MVP 阶段为候选线，需结合等高线形态、涡度和人工订正"
        ]
      }
    },
    {
      "type": "Feature",
      "geometry": {
        "type": "LineString",
        "coordinates": [
          [
            70.0,
            45.0
          ],
          [
            70.0,
            45.5
          ],
          [
            70.0,
            46.0
          ],
          [
            70.0,
            46.5
          ],
          [
            70.0,
            47.0
          ],
          [
            70.0,
            47.5
          ],
          [
            70.0,
            48.0
          ],
          [
            70.0,
            48.5
          ],
          [
            70.0,
            49.0
          ],
          [
            70.0,
            49.5
          ],
          [
            70.0,
            50.0
          ],
          [
            70.0,
            50.5
          ],
          [
            70.0,
            51.0
          ],
          [
            70.0,
            51.5
          ],
          [
            70.0,
            52.0
          ],
          [
            70.0,
            52.5
          ],
          [
            70.0,
            53.0
          ],
          [
            70.0,
            53.5
          ],
          [
            70.0,
            54.0
          ],
          [
            70.0,
            54.5
          ],
          [
            70.0,
            55.0
          ]
        ]
      },
      "properties": {
        "id": "trough_002",
        "feature_type": "trough",
        "title": "500hPa 槽线候选",
        "level": "500hPa",
        "confidence": 0.55,
        "evidence": [
          "基于 500hPa 位势高度距平轴线的启发式识别",
          "MVP 阶段为候选线，需结合等高线形态、涡度和人工订正"
        ]
      }
    },
    {
      "type": "Feature",
      "geometry": {
        "type": "LineString",
        "coordinates": [
          [
            70.0,
            15.0
          ],
          [
            70.0,
            15.5
          ],
          [
            70.0,
            16.0
          ],
          [
            70.0,
            16.5
          ],
          [
            70.0,
            17.0
          ],
          [
            70.0,
            17.5
          ],
          [
            70.0,
            18.0
          ],
          [
            70.0,
            18.5
          ],
          [
            70.0,
            19.0
          ],
          [
            70.0,
            19.5
          ],
          [
            70.0,
            20.0
          ],
          [
            70.0,
            20.5
          ],
          [
            70.0,
            21.0
          ]
        ]
      },
      "properties": {
        "id": "trough_003",
        "feature_type": "trough",
        "title": "500hPa 槽线候选",
        "level": "500hPa",
        "confidence": 0.55,
        "evidence": [
          "基于 500hPa 位势高度距平轴线的启发式识别",
          "MVP 阶段为候选线，需结合等高线形态、涡度和人工订正"
        ]
      }
    },
    {
      "type": "Feature",
      "geometry": {
        "type": "LineString",
        "coordinates": [
          [
            140.0,
            23.5
          ],
          [
            140.0,
            24.0
          ],
          [
            140.0,
            24.5
          ],
          [
            140.0,
            25.0
          ],
          [
            140.0,
            25.5
          ],
          [
            140.0,
            26.0
          ],
          [
            140.0,
            26.5
          ],
          [
            140.0,
            27.0
          ],
          [
            140.0,
            27.5
          ],
          [
            140.0,
            28.0
          ],
          [
            140.0,
            28.5
          ],
          [
            140.0,
            29.0
          ],
          [
            140.0,
            29.5
          ],
          [
            140.0,
            30.0
          ],
          [
            140.0,
            30.5
          ],
          [
            140.0,
            31.0
          ],
          [
            140.0,
            31.5
          ],
          [
            140.0,
            32.0
          ],
          [
            140.0,
            32.5
          ],
          [
            140.0,
            33.0
          ],
          [
            140.0,
            33.5
          ],
          [
            140.0,
            34.0
          ],
          [
            140.0,
            34.5
          ],
          [
            140.0,
            35.0
          ],
          [
            140.0,
            35.5
          ],
          [
            140.0,
            36.0
          ],
          [
            140.0,
            36.5
          ],
          [
            140.0,
            37.0
          ],
          [
            140.0,
            37.5
          ],
          [
            140.0,
            38.0
          ],
          [
            140.0,
            38.5
          ],
          [
            140.0,
            39.0
          ],
          [
            140.0,
            39.5
          ],
          [
            140.0,
            40.0
          ],
          [
            140.0,
            40.5
          ],
          [
            140.0,
            41.0
          ],
          [
            140.0,
            41.5
          ],
          [
            140.0,
            42.0
          ],
          [
            140.0,
            42.5
          ]
        ]
      },
      "properties": {
        "id": "ridge_001",
        "feature_type": "ridge",
        "title": "500hPa 脊线候选",
        "level": "500hPa",
        "confidence": 0.55,
        "evidence": [
          "基于 500hPa 位势高度距平轴线的启发式识别",
          "MVP 阶段为候选线，需结合等高线形态、涡度和人工订正"
        ]
      }
    },
    {
      "type": "Feature",
      "geometry": {
        "type": "LineString",
        "coordinates": [
          [
            101.5,
            28.997297297297298
          ],
          [
            117.6,
            28.997297297297298
          ]
        ]
      },
      "properties": {
        "id": "low_level_jet_001",
        "feature_type": "low_level_jet",
        "title": "850hPa 低空急流轴候选",
        "level": "850hPa",
        "max_wind_ms": 13.63,
        "confidence": 0.58,
        "evidence": [
          "850hPa 风速达到 13.6 m/s",
          "风速高值呈连通带状分布",
          "若与水汽通量高值重叠，可作为暴雨水汽输送通道候选"
        ]
      }
    },
    {
      "type": "Feature",
      "geometry": {
        "type": "LineString",
        "coordinates": [
          [
            77.0,
            27.846041055718477
          ],
          [
            140.0,
            27.846041055718477
          ]
        ]
      },
      "properties": {
        "id": "moisture_transport_001",
        "feature_type": "moisture_transport",
        "title": "850hPa 水汽输送带候选",
        "level": "850hPa",
        "max_value": 0.3733893625418993,
        "confidence": 0.68,
        "evidence": [
          "850hPa 水汽通量超过第 75 百分位阈值",
          "该带状区域可作为暖湿水汽输送通道候选"
        ]
      }
    },
    {
      "type": "Feature",
      "geometry": {
        "type": "Polygon",
        "coordinates": [
          [
            [
              79.1,
              25.5
            ],
            [
              140.0,
              25.5
            ],
            [
              140.0,
              38.5
            ],
            [
              79.1,
              38.5
            ],
            [
              79.1,
              25.5
            ]
          ]
        ]
      },
      "properties": {
        "id": "front_candidate_001",
        "feature_type": "front_candidate",
        "title": "锋面候选区",
        "confidence": 0.58,
        "point_count": 1473,
        "centroid": [
          109.94847250509166,
          32.100135777325185
        ],
        "bbox": [
          79.1,
          25.5,
          140.0,
          38.5
        ],
        "max_value": 1.0,
        "mean_value": 0.5623950875861996,
        "evidence": [
          "850hPa 温度梯度较大",
          "低层存在辐合信号",
          "温度平流变化明显",
          "MVP 阶段仅作为锋面候选，需人工订正"
        ],
        "level": "850hPa",
        "score_threshold": 0.36138183887418446
      }
    },
    {
      "type": "Feature",
      "geometry": {
        "type": "Polygon",
        "coordinates": [
          [
            [
              98.0,
              26.5
            ],
            [
              116.9,
              26.5
            ],
            [
              116.9,
              35.0
            ],
            [
              98.0,
              35.0
            ],
            [
              98.0,
              26.5
            ]
          ]
        ]
      },
      "properties": {
        "id": "heavy_rain_risk_001",
        "feature_type": "heavy_rain_risk",
        "title": "强降水潜势区",
        "confidence": 0.65,
        "point_count": 276,
        "centroid": [
          106.95797101449276,
          30.905797101449274
        ],
        "bbox": [
          98.0,
          26.5,
          116.9,
          35.0
        ],
        "max_value": 0.8496167227385144,
        "mean_value": 0.7144063259201704,
        "evidence": [
          "水汽输送、水汽辐合、上升运动和热力条件综合评分较高"
        ],
        "score_threshold": 0.62
      }
    },
    {
      "type": "Feature",
      "geometry": {
        "type": "Polygon",
        "coordinates": [
          [
            [
              90.3,
              23.5
            ],
            [
              119.69999999999999,
              23.5
            ],
            [
              119.69999999999999,
              32.0
            ],
            [
              90.3,
              32.0
            ],
            [
              90.3,
              23.5
            ]
          ]
        ]
      },
      "properties": {
        "id": "convection_risk_001",
        "feature_type": "convection_risk",
        "title": "强对流潜势区",
        "confidence": 0.65,
        "point_count": 413,
        "centroid": [
          103.81525423728813,
          28.314769975786923
        ],
        "bbox": [
          90.3,
          23.5,
          119.69999999999999,
          32.0
        ],
        "max_value": 0.8987906868713877,
        "mean_value": 0.694423080083393,
        "evidence": [
          "CAPE、CIN、风切变、低层水汽和触发条件综合评分较高"
        ],
        "score_threshold": 0.6
      }
    }
  ]
}