{
  "type": "FeatureCollection",
  "features": [
    {
      "type": "Feature",
      "geometry": {
        "type": "Point",
        "coordinates": [
          84.7,
          42.0
        ]
      },
      "properties": {
        "id": "high_001",
        "feature_type": "high",
        "label": "H",
        "level": "mslp",
        "value": 1023.98,
        "unit": "hPa",
        "confidence": 0.54,
        "evidence": [
          "局地气压极值明显",
          "中心值相对周边差异约 0.8 hPa",
          "MVP 使用局地极值和相对差异识别，后续可加入闭合等压线判定"
        ]
      }
    },
    {
      "type": "Feature",
      "geometry": {
        "type": "Point",
        "coordinates": [
          107.1,
          33.0
        ]
      },
      "properties": {
        "id": "low_002",
        "feature_type": "low",
        "label": "L",
        "level": "mslp",
        "value": 1002.67,
        "unit": "hPa",
        "confidence": 0.61,
        "evidence": [
          "局地气压极值明显",
          "中心值相对周边差异约 1.3 hPa",
          "MVP 使用局地极值和相对差异识别，后续可加入闭合等压线判定"
        ]
      }
    },
    {
      "type": "Feature",
      "geometry": {
        "type": "Point",
        "coordinates": [
          70.0,
          55.0
        ]
      },
      "properties": {
        "id": "low_003",
        "feature_type": "low",
        "label": "L",
        "level": "mslp",
        "value": 1012.81,
        "unit": "hPa",
        "confidence": 0.54,
        "evidence": [
          "局地气压极值明显",
          "中心值相对周边差异约 0.7 hPa",
          "MVP 使用局地极值和相对差异识别，后续可加入闭合等压线判定"
        ]
      }
    },
    {
      "type": "Feature",
      "geometry": {
        "type": "Polygon",
        "coordinates": [
          [
            [
              70.0,
              19.5
            ],
            [
              140.0,
              19.5
            ],
            [
              140.0,
              28.5
            ],
            [
              70.0,
              28.5
            ],
            [
              70.0,
              19.5
            ]
          ]
        ]
      },
      "properties": {
        "id": "subtropical_high_001",
        "feature_type": "subtropical_high",
        "title": "副热带高压 5880gpm 区域",
        "confidence": 0.65,
        "point_count": 1322,
        "centroid": [
          107.40287443267775,
          23.632375189107414
        ],
        "bbox": [
          70.0,
          19.5,
          140.0,
          28.5
        ],
        "max_value": 5907.99951171875,
        "mean_value": 5892.158840623818,
        "evidence": [
          "500hPa 位势高度达到或超过 5880 gpm",
          "MVP 以 5880gpm 区域近似表示副高范围"
        ],
        "level": "500hPa",
        "contour_gpm": 5880.0
      }
    },
    {
      "type": "Feature",
      "geometry": {
        "type": "LineString",
        "coordinates": [
          [
            105.0,
            22.0
          ],
          [
            105.69999999999999,
            22.5
          ],
          [
            105.69999999999999,
            23.0
          ],
          [
            105.69999999999999,
            23.5
          ],
          [
            105.69999999999999,
            24.0
          ],
          [
            106.4,
            24.5
          ],
          [
            106.4,
            25.0
          ],
          [
            106.4,
            25.5
          ],
          [
            106.4,
            26.0
          ],
          [
            106.4,
            26.5
          ],
          [
            106.4,
            27.0
          ],
          [
            106.4,
            27.5
          ],
          [
            106.4,
            28.0
          ],
          [
            106.4,
            28.5
          ],
          [
            106.4,
            29.0
          ],
          [
            106.4,
            29.5
          ],
          [
            106.4,
            30.0
          ],
          [
            106.4,
            30.5
          ],
          [
            106.4,
            31.0
          ],
          [
            106.4,
            31.5
          ],
          [
            106.4,
            32.0
          ],
          [
            106.4,
            32.5
          ],
          [
            106.4,
            33.0
          ],
          [
            106.4,
            33.5
          ],
          [
            106.4,
            34.0
          ],
          [
            106.4,
            34.5
          ],
          [
            106.4,
            35.0
          ],
          [
            106.4,
            35.5
          ],
          [
            106.4,
            36.0
          ],
          [
            106.4,
            36.5
          ],
          [
            106.4,
            37.0
          ],
          [
            106.4,
            37.5
          ],
          [
            106.4,
            38.0
          ],
          [
            106.4,
            38.5
          ],
          [
            106.4,
            39.0
          ],
          [
            106.4,
            39.5
          ],
          [
            106.4,
            40.0
          ],
          [
            106.4,
            40.5
          ],
          [
            106.4,
            41.0
          ],
          [
            106.4,
            41.5
          ],
          [
            106.4,
            42.0
          ],
          [
            105.69999999999999,
            42.5
          ],
          [
            105.69999999999999,
            43.0
          ],
          [
            105.69999999999999,
            43.5
          ],
          [
            105.69999999999999,
            44.0
          ],
          [
            105.69999999999999,
            44.5
          ],
          [
            105.0,
            45.0
          ]
        ]
      },
      "properties": {
        "id": "trough_001",
        "feature_type": "trough",
        "title": "500hPa 槽线候选",
        "level": "500hPa",
        "confidence": 0.55,
        "evidence": [
          "基于 500hPa 位势高度距平轴线的启发式识别",
          "MVP 阶段为候选线，需结合等高线形态、涡度和人工订正"
        ]
      }
    },
    {
      "type": "Feature",
      "geometry": {
        "type": "LineString",
        "coordinates": [
          [
            70.0,
            45.5
          ],
          [
            70.0,
            46.0
          ],
          [
            70.0,
            46.5
          ],
          [
            70.0,
            47.0
          ],
          [
            70.0,
            47.5
          ],
          [
            70.0,
            48.0
          ],
          [
            70.0,
            48.5
          ],
          [
            70.0,
            49.0
          ],
          [
            70.0,
            49.5
          ],
          [
            70.0,
            50.0
          ],
          [
            70.0,
            50.5
          ],
          [
            70.0,
            51.0
          ],
          [
            70.0,
            51.5
          ],
          [
            70.0,
            52.0
          ],
          [
            70.0,
            52.5
          ],
          [
            70.0,
            53.0
          ],
          [
            70.0,
            53.5
          ],
          [
            70.0,
            54.0
          ],
          [
            70.0,
            54.5
          ],
          [
            70.0,
            55.0
          ]
        ]
      },
      "properties": {
        "id": "trough_002",
        "feature_type": "trough",
        "title": "500hPa 槽线候选",
        "level": "500hPa",
        "confidence": 0.55,
        "evidence": [
          "基于 500hPa 位势高度距平轴线的启发式识别",
          "MVP 阶段为候选线，需结合等高线形态、涡度和人工订正"
        ]
      }
    },
    {
      "type": "Feature",
      "geometry": {
        "type": "LineString",
        "coordinates": [
          [
            70.0,
            15.0
          ],
          [
            70.0,
            15.5
          ],
          [
            70.0,
            16.0
          ],
          [
            70.0,
            16.5
          ],
          [
            70.0,
            17.0
          ],
          [
            70.0,
            17.5
          ],
          [
            70.0,
            18.0
          ],
          [
            70.0,
            18.5
          ],
          [
            70.0,
            19.0
          ],
          [
            70.0,
            19.5
          ],
          [
            70.0,
            20.0
          ],
          [
            70.0,
            20.5
          ],
          [
            70.0,
            21.0
          ],
          [
            70.0,
            21.5
          ]
        ]
      },
      "properties": {
        "id": "trough_003",
        "feature_type": "trough",
        "title": "500hPa 槽线候选",
        "level": "500hPa",
        "confidence": 0.55,
        "evidence": [
          "基于 500hPa 位势高度距平轴线的启发式识别",
          "MVP 阶段为候选线，需结合等高线形态、涡度和人工订正"
        ]
      }
    },
    {
      "type": "Feature",
      "geometry": {
        "type": "LineString",
        "coordinates": [
          [
            140.0,
            24.0
          ],
          [
            140.0,
            24.5
          ],
          [
            140.0,
            25.0
          ],
          [
            140.0,
            25.5
          ],
          [
            140.0,
            26.0
          ],
          [
            140.0,
            26.5
          ],
          [
            140.0,
            27.0
          ],
          [
            140.0,
            27.5
          ],
          [
            140.0,
            28.0
          ],
          [
            140.0,
            28.5
          ],
          [
            140.0,
            29.0
          ],
          [
            140.0,
            29.5
          ],
          [
            140.0,
            30.0
          ],
          [
            140.0,
            30.5
          ],
          [
            140.0,
            31.0
          ],
          [
            140.0,
            31.5
          ],
          [
            140.0,
            32.0
          ],
          [
            140.0,
            32.5
          ],
          [
            140.0,
            33.0
          ],
          [
            140.0,
            33.5
          ],
          [
            140.0,
            34.0
          ],
          [
            140.0,
            34.5
          ],
          [
            140.0,
            35.0
          ],
          [
            140.0,
            35.5
          ],
          [
            140.0,
            36.0
          ],
          [
            140.0,
            36.5
          ],
          [
            140.0,
            37.0
          ],
          [
            140.0,
            37.5
          ],
          [
            140.0,
            38.0
          ],
          [
            140.0,
            38.5
          ],
          [
            140.0,
            39.0
          ],
          [
            140.0,
            39.5
          ],
          [
            140.0,
            40.0
          ],
          [
            140.0,
            40.5
          ],
          [
            140.0,
            41.0
          ],
          [
            140.0,
            41.5
          ],
          [
            140.0,
            42.0
          ],
          [
            140.0,
            42.5
          ],
          [
            140.0,
            43.0
          ]
        ]
      },
      "properties": {
        "id": "ridge_001",
        "feature_type": "ridge",
        "title": "500hPa 脊线候选",
        "level": "500hPa",
        "confidence": 0.55,
        "evidence": [
          "基于 500hPa 位势高度距平轴线的启发式识别",
          "MVP 阶段为候选线，需结合等高线形态、涡度和人工订正"
        ]
      }
    },
    {
      "type": "Feature",
      "geometry": {
        "type": "LineString",
        "coordinates": [
          [
            102.9,
            29.387700534759357
          ],
          [
            119.0,
            29.387700534759357
          ]
        ]
      },
      "properties": {
        "id": "low_level_jet_001",
        "feature_type": "low_level_jet",
        "title": "850hPa 低空急流轴候选",
        "level": "850hPa",
        "max_wind_ms": 13.63,
        "confidence": 0.58,
        "evidence": [
          "850hPa 风速达到 13.6 m/s",
          "风速高值呈连通带状分布",
          "若与水汽通量高值重叠，可作为暴雨水汽输送通道候选"
        ]
      }
    },
    {
      "type": "Feature",
      "geometry": {
        "type": "LineString",
        "coordinates": [
          [
            77.0,
            28.283724340175954
          ],
          [
            140.0,
            28.283724340175954
          ]
        ]
      },
      "properties": {
        "id": "moisture_transport_001",
        "feature_type": "moisture_transport",
        "title": "850hPa 水汽输送带候选",
        "level": "850hPa",
        "max_value": 0.37369708031218524,
        "confidence": 0.68,
        "evidence": [
          "850hPa 水汽通量超过第 75 百分位阈值",
          "该带状区域可作为暖湿水汽输送通道候选"
        ]
      }
    },
    {
      "type": "Feature",
      "geometry": {
        "type": "Polygon",
        "coordinates": [
          [
            [
              78.4,
              26.0
            ],
            [
              140.0,
              26.0
            ],
            [
              140.0,
              39.0
            ],
            [
              78.4,
              39.0
            ],
            [
              78.4,
              26.0
            ]
          ]
        ]
      },
      "properties": {
        "id": "front_candidate_001",
        "feature_type": "front_candidate",
        "title": "锋面候选区",
        "confidence": 0.58,
        "point_count": 1473,
        "centroid": [
          110.14331296673454,
          32.56517311608961
        ],
        "bbox": [
          78.4,
          26.0,
          140.0,
          39.0
        ],
        "max_value": 1.0,
        "mean_value": 0.5629254657964192,
        "evidence": [
          "850hPa 温度梯度较大",
          "低层存在辐合信号",
          "温度平流变化明显",
          "MVP 阶段仅作为锋面候选，需人工订正"
        ],
        "level": "850hPa",
        "score_threshold": 0.3627644298715915
      }
    },
    {
      "type": "Feature",
      "geometry": {
        "type": "Polygon",
        "coordinates": [
          [
            [
              98.7,
              27.0
            ],
            [
              118.3,
              27.0
            ],
            [
              118.3,
              35.5
            ],
            [
              98.7,
              35.5
            ],
            [
              98.7,
              27.0
            ]
          ]
        ]
      },
      "properties": {
        "id": "heavy_rain_risk_001",
        "feature_type": "heavy_rain_risk",
        "title": "强降水潜势区",
        "confidence": 0.65,
        "point_count": 292,
        "centroid": [
          108.20513698630137,
          31.28082191780822
        ],
        "bbox": [
          98.7,
          27.0,
          118.3,
          35.5
        ],
        "max_value": 0.8500000000000001,
        "mean_value": 0.7147172888132682,
        "evidence": [
          "水汽输送、水汽辐合、上升运动和热力条件综合评分较高"
        ],
        "score_threshold": 0.62
      }
    },
    {
      "type": "Feature",
      "geometry": {
        "type": "Polygon",
        "coordinates": [
          [
            [
              91.7,
              24.0
            ],
            [
              109.19999999999999,
              24.0
            ],
            [
              109.19999999999999,
              33.0
            ],
            [
              91.7,
              33.0
            ],
            [
              91.7,
              24.0
            ]
          ]
        ]
      },
      "properties": {
        "id": "convection_risk_001",
        "feature_type": "convection_risk",
        "title": "强对流潜势区",
        "confidence": 0.65,
        "point_count": 277,
        "centroid": [
          101.20685920577617,
          28.577617328519857
        ],
        "bbox": [
          91.7,
          24.0,
          109.19999999999999,
          33.0
        ],
        "max_value": 0.9061265495692842,
        "mean_value": 0.7117873257046339,
        "evidence": [
          "CAPE、CIN、风切变、低层水汽和触发条件综合评分较高"
        ],
        "score_threshold": 0.6
      }
    },
    {
      "type": "Feature",
      "geometry": {
        "type": "Polygon",
        "coordinates": [
          [
            [
              109.9,
              26.0
            ],
            [
              119.0,
              26.0
            ],
            [
              119.0,
              31.5
            ],
            [
              109.9,
              31.5
            ],
            [
              109.9,
              26.0
            ]
          ]
        ]
      },
      "properties": {
        "id": "convection_risk_002",
        "feature_type": "convection_risk",
        "title": "强对流潜势区",
        "confidence": 0.65,
        "point_count": 68,
        "centroid": [
          114.66617647058824,
          28.61764705882353
        ],
        "bbox": [
          109.9,
          26.0,
          119.0,
          31.5
        ],
        "max_value": 0.7650634374263989,
        "mean_value": 0.6655497138973772,
        "evidence": [
          "CAPE、CIN、风切变、低层水汽和触发条件综合评分较高"
        ],
        "score_threshold": 0.6
      }
    },
    {
      "type": "Feature",
      "geometry": {
        "type": "Polygon",
        "coordinates": [
          [
            [
              108.5,
              27.5
            ],
            [
              112.69999999999999,
              27.5
            ],
            [
              112.69999999999999,
              32.5
            ],
            [
              108.5,
              32.5
            ],
            [
              108.5,
              27.5
            ]
          ]
        ]
      },
      "properties": {
        "id": "convection_risk_003",
        "feature_type": "convection_risk",
        "title": "强对流潜势区",
        "confidence": 0.65,
        "point_count": 28,
        "centroid": [
          110.475,
          30.142857142857142
        ],
        "bbox": [
          108.5,
          27.5,
          112.69999999999999,
          32.5
        ],
        "max_value": 0.7702709641721932,
        "mean_value": 0.6675788092856597,
        "evidence": [
          "CAPE、CIN、风切变、低层水汽和触发条件综合评分较高"
        ],
        "score_threshold": 0.6
      }
    }
  ]
}